SPACEMOBILE-004         
1 61049U 24163E   26201.28776774  .00011771  00000+0  54287-3 0  9990
2 61049  52.9728 156.7022 0005406 240.1803 119.8654 15.20670628102803
CZ-8A R/B               
1 66004U 25231K   26201.38226770 -.00000100  00000+0  23312-4 0  9991
2 66004  50.0032 258.0904 0116538 340.8790  18.7770 14.30163075 39698
SZ-21 MODULE            
1 66515U 25246C   26200.93928356  .00034255  00000+0  18665-3 0  9994
2 66515  41.4720 102.9079 0009191 250.3291 109.6563 15.79140397 38910
SPACEMOBILE-006         
1 67232U 25309A   26201.34407849  .00001858  00000+0  10374-3 0  9998
2 67232  52.9942 179.7458 0009593 233.1495 126.8619 15.18671763 31638
SPACEMOBILE-008         
1 69589U 26139A   26201.90052318  .00000318  00000+0  34863-4 0  9996
2 69589  52.9952 109.5048 0005259  70.1086 290.0472 15.12808185  5087
SPACEMOBILE-009         
1 69590U 26139B   26201.90288280  .00001150  00000+0  81934-4 0  9993
2 69590  52.9943 109.5135 0005555  66.3129 293.8445 15.12707117  5084
SPACEMOBILE-010         
1 69591U 26139C   26201.90661388  .00001095  00000+0  79125-4 0  9995
2 69591  52.9949 109.5396 0005539  58.9891 301.1643 15.12543979  5093
